start=new Date('2022-06-15T00:00:00.000Z').valueOf();
sats=[{"LAUNCH_DATE":"2020-04-22","CENTER_NAME":"EARTH","CLASSIFICATION_TYPE":"U","BSTAR":"0.00002236600000","RCS_SIZE":"LARGE","PERIAPSIS":"546.049","ECCENTRICITY":"0.00016800","SITE":"AFETR","TLE_LINE1":"1 45565U 20025AL  22165.77286709  .00000052  00000-0  22366-4 0  9996","GP_ID":"206166787","ARG_OF_PERICENTER":"64.7753","MEAN_MOTION_DDOT":"0.0000000000000","MEAN_MOTION_DOT":"0.00000052","EPHEMERIS_TYPE":"0","REV_AT_EPOCH":"11979","FILE":"3496199","COUNTRY_CODE":"US","OBJECT_TYPE":"PAYLOAD","INCLINATION":"53.0545","EPOCH":"2022-06-14T18:32:55.716576","APOAPSIS":"548.376","RA_OF_ASC_NODE":"89.4779","OBJECT_NAME":"STARLINK-1357","MEAN_ELEMENT_THEORY":"SGP4","ELEMENT_SET_NO":"999","MEAN_ANOMALY":"295.3410","MEAN_MOTION":"15.06400270","TLE_LINE2":"2 45565  53.0545  89.4779 0001680  64.7753 295.3410 15.06400270119796","TIME_SYSTEM":"UTC","NORAD_CAT_ID":"45565","DECAY_DATE":null,"OBJECT_ID":"2020-025AL","PERIOD":"95.592","REF_FRAME":"TEME","SEMIMAJOR_AXIS":"6925.348"},{"RCS_SIZE":"LARGE","PERIAPSIS":"545.784","ECCENTRICITY":"0.00020320","CENTER_NAME":"EARTH","LAUNCH_DATE":"2020-04-22","CLASSIFICATION_TYPE":"U","BSTAR":"0.00010379000000","EPHEMERIS_TYPE":"0","MEAN_MOTION_DOT":"0.00001265","REV_AT_EPOCH":"11975","FILE":"3495970","SITE":"AFETR","GP_ID":"206137325","TLE_LINE1":"1 45566U 20025AM  22165.52221836  .00001265  00000-0  10379-3 0  9997","ARG_OF_PERICENTER":"66.4517","MEAN_MOTION_DDOT":"0.0000000000000","EPOCH":"2022-06-14T12:31:59.666304","APOAPSIS":"548.599","RA_OF_ASC_NODE":"90.6131","OBJECT_NAME":"STARLINK-1358","COUNTRY_CODE":"US","OBJECT_TYPE":"PAYLOAD","INCLINATION":"53.0548","DECAY_DATE":null,"OBJECT_ID":"2020-025AM","PERIOD":"95.592","REF_FRAME":"TEME","SEMIMAJOR_AXIS":"6925.326","MEAN_ELEMENT_THEORY":"SGP4","ELEMENT_SET_NO":"999","MEAN_ANOMALY":"293.6685","MEAN_MOTION":"15.06407249","TIME_SYSTEM":"UTC","TLE_LINE2":"2 45566  53.0548  90.6131 0002032  66.4517 293.6685 15.06407249119759","NORAD_CAT_ID":"45566"},{"RCS_SIZE":"LARGE","PERIAPSIS":"545.982","ECCENTRICITY":"0.00017800","LAUNCH_DATE":"2020-04-22","CENTER_NAME":"EARTH","CLASSIFICATION_TYPE":"U","BSTAR":"-0.00002178500000","MEAN_MOTION_DOT":"-0.00000606","EPHEMERIS_TYPE":"0","REV_AT_EPOCH":"11980","FILE":"3496199","SITE":"AFETR","TLE_LINE1":"1 45567U 20025AN  22165.79866715 -.00000606  00000-0 -21785-4 0  9992","ARG_OF_PERICENTER":"69.1931","GP_ID":"206167788","MEAN_MOTION_DDOT":"0.0000000000000","EPOCH":"2022-06-14T19:10:04.841760","APOAPSIS":"548.447","RA_OF_ASC_NODE":"89.3519","OBJECT_NAME":"STARLINK-1361","COUNTRY_CODE":"US","OBJECT_TYPE":"PAYLOAD","INCLINATION":"53.0553","DECAY_DATE":null,"OBJECT_ID":"2020-025AN","PERIOD":"95.592","REF_FRAME":"TEME","SEMIMAJOR_AXIS":"6925.349","MEAN_ELEMENT_THEORY":"SGP4","ELEMENT_SET_NO":"999","MEAN_MOTION":"15.06399721","MEAN_ANOMALY":"290.9248","TIME_SYSTEM":"UTC","TLE_LINE2":"2 45567  53.0553  89.3519 0001780  69.1931 290.9248 15.06399721119806","NORAD_CAT_ID":"45567"},{"FILE":"3496199","EPHEMERIS_TYPE":"0","MEAN_MOTION_DOT":"0.00000456","REV_AT_EPOCH":"11976","GP_ID":"206167535","TLE_LINE1":"1 45568U 20025AP  22165.61440021  .00000456  00000-0  49542-4 0  9994","ARG_OF_PERICENTER":"67.1435","MEAN_MOTION_DDOT":"0.0000000000000","SITE":"AFETR","ECCENTRICITY":"0.00019050","RCS_SIZE":"LARGE","PERIAPSIS":"545.902","BSTAR":"0.00004954200000","CLASSIFICATION_TYPE":"U","CENTER_NAME":"EARTH","LAUNCH_DATE":"2020-04-22","PERIOD":"95.592","SEMIMAJOR_AXIS":"6925.356","REF_FRAME":"TEME","OBJECT_ID":"2020-025AP","DECAY_DATE":null,"MEAN_MOTION":"15.06397479","MEAN_ANOMALY":"292.9755","NORAD_CAT_ID":"45568","TLE_LINE2":"2 45568  53.0551  90.4335 0001905  67.1435 292.9755 15.06397479119768","TIME_SYSTEM":"UTC","MEAN_ELEMENT_THEORY":"SGP4","ELEMENT_SET_NO":"999","RA_OF_ASC_NODE":"90.4335","APOAPSIS":"548.541","OBJECT_NAME":"STARLINK-1363","EPOCH":"2022-06-14T14:44:44.178144","INCLINATION":"53.0551","OBJECT_TYPE":"PAYLOAD","COUNTRY_CODE":"US"},{"REV_AT_EPOCH":"11970","MEAN_MOTION_DOT":"0.00000184","EPHEMERIS_TYPE":"0","FILE":"3495970","SITE":"AFETR","GP_ID":"206136584","TLE_LINE1":"1 45569U 20025AQ  22165.20522448  .00000184  00000-0  31282-4 0  9994","ARG_OF_PERICENTER":"67.9873","MEAN_MOTION_DDOT":"0.0000000000000","RCS_SIZE":"LARGE","PERIAPSIS":"545.631","ECCENTRICITY":"0.00022620","CLASSIFICATION_TYPE":"U","LAUNCH_DATE":"2020-04-22","CENTER_NAME":"EARTH","BSTAR":"0.00003128200000","OBJECT_ID":"2020-025AQ","DECAY_DATE":null,"PERIOD":"95.592","SEMIMAJOR_AXIS":"6925.333","REF_FRAME":"TEME","MEAN_ELEMENT_THEORY":"SGP4","ELEMENT_SET_NO":"999","MEAN_ANOMALY":"292.1356","MEAN_MOTION":"15.06405200","NORAD_CAT_ID":"45569","TIME_SYSTEM":"UTC","TLE_LINE2":"2 45569  53.0561  92.0278 0002262  67.9873 292.1356 15.06405200119700","EPOCH":"2022-06-14T04:55:31.395072","RA_OF_ASC_NODE":"92.0278","APOAPSIS":"548.764","OBJECT_NAME":"STARLINK-1366","OBJECT_TYPE":"PAYLOAD","COUNTRY_CODE":"US","INCLINATION":"53.0561"},{"SITE":"AFETR","MEAN_MOTION_DDOT":"0.0000000000000","TLE_LINE1":"1 45570U 20025AR  22165.52959558  .00000089  00000-0  24852-4 0  9996","GP_ID":"206112786","ARG_OF_PERICENTER":"74.2281","MEAN_MOTION_DOT":"0.00000089","EPHEMERIS_TYPE":"0","REV_AT_EPOCH":"11915","FILE":"3495773","LAUNCH_DATE":"2020-04-22","CENTER_NAME":"EARTH","CLASSIFICATION_TYPE":"U","BSTAR":"0.00002485200000","PERIAPSIS":"545.975","RCS_SIZE":"LARGE","ECCENTRICITY":"0.00018090","ELEMENT_SET_NO":"999","MEAN_ELEMENT_THEORY":"SGP4","TLE_LINE2":"2 45570  53.0544  90.5632 0001809  74.2281 285.8908 15.06395507119159","TIME_SYSTEM":"UTC","NORAD_CAT_ID":"45570","MEAN_MOTION":"15.06395507","MEAN_ANOMALY":"285.8908","DECAY_DATE":null,"OBJECT_ID":"2020-025AR","REF_FRAME":"TEME","SEMIMAJOR_AXIS":"6925.362","PERIOD":"95.592","COUNTRY_CODE":"US","OBJECT_TYPE":"PAYLOAD","INCLINATION":"53.0544","EPOCH":"2022-06-14T12:42:37.058112","OBJECT_NAME":"STARLINK-1376","APOAPSIS":"548.480","RA_OF_ASC_NODE":"90.5632"},{"DECAY_DATE":null,"OBJECT_ID":"2020-025AS","PERIOD":"95.592","REF_FRAME":"TEME","SEMIMAJOR_AXIS":"6925.351","MEAN_ELEMENT_THEORY":"SGP4","ELEMENT_SET_NO":"999","MEAN_ANOMALY":"291.7895","MEAN_MOTION":"15.06399177","TIME_SYSTEM":"UTC","TLE_LINE2":"2 45571  53.0543  80.8008 0001551  68.3259 291.7895 15.06399177119902","NORAD_CAT_ID":"45571","EPOCH":"2022-06-14T11:29:38.227488","APOAPSIS":"548.290","RA_OF_ASC_NODE":"80.8008","OBJECT_NAME":"STARLINK-1261","COUNTRY_CODE":"US","OBJECT_TYPE":"PAYLOAD","INCLINATION":"53.0543","REV_AT_EPOCH":"11990","MEAN_MOTION_DOT":"0.00000151","EPHEMERIS_TYPE":"0","FILE":"3495970","SITE":"AFETR","TLE_LINE1":"1 45571U 20025AS  22165.47891467  .00000151  00000-0  29026-4 0  9993","ARG_OF_PERICENTER":"68.3259","GP_ID":"206135583","MEAN_MOTION_DDOT":"0.0000000000000","RCS_SIZE":"LARGE","PERIAPSIS":"546.142","ECCENTRICITY":"0.00015510","CENTER_NAME":"EARTH","LAUNCH_DATE":"2020-04-22","CLASSIFICATION_TYPE":"U","BSTAR":"0.00002902600000"},{"DECAY_DATE":null,"OBJECT_ID":"2020-025AT","PERIOD":"95.592","REF_FRAME":"TEME","SEMIMAJOR_AXIS":"6925.358","MEAN_ELEMENT_THEORY":"SGP4","ELEMENT_SET_NO":"999","MEAN_MOTION":"15.06396867","MEAN_ANOMALY":"289.7246","TLE_LINE2":"2 45572  53.0543  79.3513 0001611  70.3917 289.7246 15.06396867119942","TIME_SYSTEM":"UTC","NORAD_CAT_ID":"45572","EPOCH":"2022-06-14T19:16:42.752640","APOAPSIS":"548.339","RA_OF_ASC_NODE":"79.3513","OBJECT_NAME":"STARLINK-1320","COUNTRY_CODE":"US","OBJECT_TYPE":"PAYLOAD","INCLINATION":"53.0543","MEAN_MOTION_DOT":"-0.00000408","REV_AT_EPOCH":"11994","EPHEMERIS_TYPE":"0","FILE":"3496199","SITE":"AFETR","TLE_LINE1":"1 45572U 20025AT  22165.80327260 -.00000408  00000-0 -84690-5 0  9992","GP_ID":"206168035","ARG_OF_PERICENTER":"70.3917","MEAN_MOTION_DDOT":"0.0000000000000","RCS_SIZE":"LARGE","PERIAPSIS":"546.107","ECCENTRICITY":"0.00016110","LAUNCH_DATE":"2020-04-22","CENTER_NAME":"EARTH","CLASSIFICATION_TYPE":"U","BSTAR":"-0.00000846900000"},{"ECCENTRICITY":"0.00017900","PERIAPSIS":"545.970","RCS_SIZE":"LARGE","BSTAR":"-0.00001277600000","CLASSIFICATION_TYPE":"U","LAUNCH_DATE":"2020-04-22","CENTER_NAME":"EARTH","FILE":"3496199","MEAN_MOTION_DOT":"-0.00000472","REV_AT_EPOCH":"11963","EPHEMERIS_TYPE":"0","MEAN_MOTION_DDOT":"0.0000000000000","TLE_LINE1":"1 45573U 20025AU  22165.78115789 -.00000472  00000-0 -12776-4 0  9997","GP_ID":"206166788","ARG_OF_PERICENTER":"59.5633","SITE":"AFETR","OBJECT_NAME":"STARLINK-1321","RA_OF_ASC_NODE":"79.4485","APOAPSIS":"548.450","EPOCH":"2022-06-14T18:44:52.041696","INCLINATION":"53.0556","OBJECT_TYPE":"PAYLOAD","COUNTRY_CODE":"US","SEMIMAJOR_AXIS":"6925.345","REF_FRAME":"TEME","PERIOD":"95.592","OBJECT_ID":"2020-025AU","DECAY_DATE":null,"NORAD_CAT_ID":"45573","TLE_LINE2":"2 45573  53.0556  79.4485 0001790  59.5633 300.5533 15.06401120119634","TIME_SYSTEM":"UTC","MEAN_ANOMALY":"300.5533","MEAN_MOTION":"15.06401120","ELEMENT_SET_NO":"999","MEAN_ELEMENT_THEORY":"SGP4"},{"TLE_LINE1":"1 45574U 20025AV  22165.47522701 -.00000544  00000-0 -17636-4 0  9990","GP_ID":"206109965","ARG_OF_PERICENTER":"73.3370","MEAN_MOTION_DDOT":"0.0000000000000","SITE":"AFETR","FILE":"3495636","MEAN_MOTION_DOT":"-0.00000544","REV_AT_EPOCH":"11929","EPHEMERIS_TYPE":"0","BSTAR":"-0.00001763600000","CLASSIFICATION_TYPE":"U","LAUNCH_DATE":"2020-04-22","CENTER_NAME":"EARTH","ECCENTRICITY":"0.00018840","RCS_SIZE":"LARGE","PERIAPSIS":"545.924","MEAN_MOTION":"15.06395140","MEAN_ANOMALY":"286.7825","NORAD_CAT_ID":"45574","TIME_SYSTEM":"UTC","TLE_LINE2":"2 45574  53.0542  80.8191 0001884  73.3370 286.7825 15.06395140119291","MEAN_ELEMENT_THEORY":"SGP4","ELEMENT_SET_NO":"999","PERIOD":"95.592","SEMIMAJOR_AXIS":"6925.363","REF_FRAME":"TEME","OBJECT_ID":"2020-025AV","DECAY_DATE":null,"INCLINATION":"53.0542","OBJECT_TYPE":"PAYLOAD","COUNTRY_CODE":"US","RA_OF_ASC_NODE":"80.8191","APOAPSIS":"548.533","OBJECT_NAME":"STARLINK-1324","EPOCH":"2022-06-14T11:24:19.613664"}];
